ONEWEB-0520             
1 54138U 22138AB  25020.60830583 -.00000027  00000+0 -99158-4 0  9995
2 54138  87.9143  46.8590 0001634 107.0584 253.0728 13.19727501109212
ONEWEB-0521             
1 54139U 22138AC  25020.56566197 -.00000209  00000+0 -55379-3 0  9996
2 54139  87.9141  46.8572 0001797  85.2171 274.9166 13.19724769109154
ONEWEB-0522             
1 54140U 22138AD  25020.62095364  .00000048  00000+0  86749-4 0  9993
2 54140  87.9141  46.8475 0001825  97.4001 262.7339 13.19728162109201
ONEWEB-0523             
1 54141U 22138AE  25020.46003888  .00000075  00000+0  15245-3 0  9998
2 54141  87.9257  16.4511 0002591  75.4036 284.7384 13.20770228111624
ONEWEB-0524             
1 54142U 22138AF  25020.52474382  .00000061  00000+0  11701-3 0  9995
2 54142  87.9255  16.4406 0002746  96.7655 263.3791 13.20773274111631
ONEWEB-0525             
1 54143U 22138AG  25020.56409170  .00000031  00000+0  45908-4 0  9997
2 54143  87.9145  46.8738 0001586 103.4491 256.6818 13.19723345109218
ONEWEB-0526             
1 54144U 22138AH  25020.59724990 -.00000018  00000+0 -76427-4 0  9998
2 54144  87.9142  46.8587 0001781  98.7418 261.3916 13.19727564109196
ONEWEB-0529             
1 54145U 22138AJ  25020.60040947 -.00000012  00000+0 -62967-4 0  9992
2 54145  87.9150  46.8890 0001659 103.1065 257.0253 13.19727293109214
